[{"OBJECT_NAME":"EOSSAT-1","OBJECT_ID":"2023-001AW","EPOCH":"2026-03-09T17:40:07.010400","MEAN_MOTION":15.32339828,"ECCENTRICITY":0.00112629,"INCLINATION":97.3357,"RA_OF_ASC_NODE":130.2294,"ARG_OF_PERICENTER":110.3168,"MEAN_ANOMALY":249.9285,"EPHEMERIS_TYPE":0,"CLASSIFICATION_TYPE":"U","NORAD_CAT_ID":55053,"ELEMENT_SET_NO":999,"REV_AT_EPOCH":17668,"BSTAR":0.00024844399,"MEAN_MOTION_DOT":7.695e-5,"MEAN_MOTION_DDOT":0},{"OBJECT_NAME":"STARLINK-34724","OBJECT_ID":"2025-259W","EPOCH":"2026-03-08T22:53:15.385920","MEAN_MOTION":15.27595092,"ECCENTRICITY":0.0002544,"INCLINATION":43.0058,"RA_OF_ASC_NODE":278.9373,"ARG_OF_PERICENTER":271.3973,"MEAN_ANOMALY":88.6587,"EPHEMERIS_TYPE":0,"CLASSIFICATION_TYPE":"U","NORAD_CAT_ID":66442,"ELEMENT_SET_NO":999,"REV_AT_EPOCH":1937,"BSTAR":0.0010179236,"MEAN_MOTION_DOT":0.00027869,"MEAN_MOTION_DDOT":0}]
